QZS-2 (QZSS/PRN 194)    
1 42738U 17028A   26087.74350157 -.00000220  00000+0  00000+0 0  9990
2 42738  39.5536 244.3254 0742969 270.5503  79.2760  1.00255529  6815
