{
  "norad_id": 42738,
  "name": "QZS-2 (MICHIBIKI-2)",
  "history": [
    {
      "epoch": "2026-03-28T17:50:38.535648Z",
      "apogee_km": 38924.204020778176,
      "perigee_km": 32658.101426937075,
      "latitude_deg": -0.9890685931077614,
      "longitude_deg": 149.26806102779125,
      "height_km": 35439.55759278055,
      "semi_major_axis_km": 42169.289723857626,
      "eccentricity": 0.07429699,
      "inclination_deg": 39.5536,
      "raan_deg": 244.3254,
      "arg_perigee_deg": 270.5503,
      "mean_anomaly_deg": 79.276,
      "mean_motion_rev_day": 1.00255529
    }
  ]
}